[{"OBJECT_NAME":"STARLINK-32806","OBJECT_ID":"2025-014A","EPOCH":"2026-03-09T22:34:10.643808","MEAN_MOTION":15.27609483,"ECCENTRICITY":0.00027213,"INCLINATION":43.0032,"RA_OF_ASC_NODE":153.1644,"ARG_OF_PERICENTER":274.2278,"MEAN_ANOMALY":85.8262,"EPHEMERIS_TYPE":0,"CLASSIFICATION_TYPE":"U","NORAD_CAT_ID":62735,"ELEMENT_SET_NO":999,"REV_AT_EPOCH":6329,"BSTAR":0.0010823859,"MEAN_MOTION_DOT":0.00029671,"MEAN_MOTION_DDOT":0},{"OBJECT_NAME":"COSMOS 1758","OBJECT_ID":"1986-046A","EPOCH":"2026-03-09T22:23:33.220896","MEAN_MOTION":15.25706639,"ECCENTRICITY":0.00131526,"INCLINATION":82.4607,"RA_OF_ASC_NODE":143.3203,"ARG_OF_PERICENTER":337.3781,"MEAN_ANOMALY":22.6875,"EPHEMERIS_TYPE":0,"CLASSIFICATION_TYPE":"U","NORAD_CAT_ID":16791,"ELEMENT_SET_NO":999,"REV_AT_EPOCH":16610,"BSTAR":0.00027304427,"MEAN_MOTION_DOT":7.006e-5,"MEAN_MOTION_DDOT":0}]
